NORAD_CAT_ID,OBJECT_NAME,OBJECT_TYPE,EPOCH,MEAN_MOTION,ECCENTRICITY,INCLINATION,RA_OF_ASC_NODE,ARG_OF_PERICENTER,MEAN_ANOMALY,BSTAR,MEAN_MOTION_DOT,MEAN_MOTION_DDOT,TLE_LINE0,TLE_LINE1,TLE_LINE2,SEMIMAJOR_AXIS,PERIOD,APOGEE,PERIGEE,DECAYED
55296.0,STARLINK-5285,PAYLOAD,2024-01-12 22:25:10,14.98332926,0.000263,69.9998,208.0302,247.139,112.9491,-0.00011212,-1.431e-05,0.0,0 STARLINK-5285,1 55296U 23010AD  24012.93415112 -.00001431  00000-0 -11212-3 0  9999,2 55296  69.9998 208.0302 0002630 247.1390 112.9491 14.98332926 56309,6950.184,96.107,573.877,570.221,0.0
55296.0,STARLINK-5285,PAYLOAD,2024-01-13 14:26:30,14.98335799,0.0002818,69.999,206.346,259.6383,100.4459,-0.0001518,-1.904e-05,0.0,0 STARLINK-5285,1 55296U 23010AD  24013.60174753 -.00001904  00000-0 -15180-3 0  9990,2 55296  69.9990 206.3460 0002818 259.6383 100.4459 14.98335799 56403,6950.175,96.107,573.999,570.081,0.0
55296.0,STARLINK-5285,PAYLOAD,2024-01-13 19:14:55,14.98335045,0.0002631,69.9998,205.8414,245.9843,114.104,-0.00014754,-1.853e-05,0.0,0 STARLINK-5285,1 55296U 23010AD  24013.80202668 -.00001853  00000-0 -14754-3 0  9998,2 55296  69.9998 205.8414 0002631 245.9843 114.1040 14.98335045 55249,6950.177,96.107,573.871,570.214,0.0
55296.0,STARLINK-5285,PAYLOAD,2024-01-14 14:28:31,14.98331274,0.0002868,69.9991,203.8212,263.6207,96.4625,3.626e-05,3.4e-06,0.0,0 STARLINK-5285,1 55296U 23010AD  24014.60314217  .00000340  00000-0  36260-4 0  9996,2 55296  69.9991 203.8212 0002868 263.6207  96.4625 14.98331274 56555,6950.189,96.107,574.047,570.061,0.0
55296.0,STARLINK-5285,PAYLOAD,2024-01-14 19:16:55,14.98333187,0.0002814,69.999,203.3164,261.6791,98.4049,6.0786e-05,6.32e-06,0.0,0 STARLINK-5285,1 55296U 23010AD  24014.80341996  .00000632  00000-0  60786-4 0  9996,2 55296  69.9990 203.3164 0002814 261.6791  98.4049 14.98333187 55390,6950.183,96.107,574.004,570.092,0.0
55296.0,STARLINK-5285,PAYLOAD,2024-01-14 22:29:10,14.98340086,0.0002431,70.0001,202.9828,244.1849,115.9059,0.00015416,1.747e-05,0.0,0 STARLINK-5285,1 55296U 23010AD  24014.93693266  .00001747  00000-0  15416-3 0  9997,2 55296  70.0001 202.9828 0002431 244.1849 115.9059 14.98340086 56600,6950.162,96.106,573.716,570.337,0.0
55296.0,STARLINK-5285,PAYLOAD,2024-01-15 14:30:32,14.98330578,0.0003221,69.9986,201.2957,276.9872,83.0921,1.0468e-05,3.2e-07,0.0,0 STARLINK-5285,1 55296U 23010AD  24015.60453918  .00000032  00000-0  10468-4 0  9999,2 55296  69.9986 201.2957 0003221 276.9872  83.0921 14.98330578 56700,6950.191,96.107,574.295,569.817,0.0
55296.0,STARLINK-5285,PAYLOAD,2024-01-15 19:18:56,14.98329583,0.0003092,69.9988,200.791,272.887,87.1936,-4.4966e-06,-1.47e-06,0.0,0 STARLINK-5285,1 55296U 23010AD  24015.80481969 -.00000147  00000-0 -44966-5 0  9998,2 55296  69.9988 200.7910 0003092 272.8870  87.1936 14.98329583 55540,6950.194,96.107,574.208,569.91,0.0
55296.0,STARLINK-5285,PAYLOAD,2024-01-15 20:55:03,14.98379185,0.0002811,69.9988,200.6222,265.7332,94.3506,-0.00087838,-0.00010571,0.0,0 STARLINK-5285,1 55296U 23010AD  24015.87157073 -.00010571  00000-0 -87838-3 0  9996,2 55296  69.9988 200.6222 0002811 265.7332  94.3506 14.98379185 56746,6950.041,96.104,573.859,569.952,0.0
55296.0,STARLINK-5285,PAYLOAD,2024-01-15 22:31:11,14.98387213,0.0002824,69.9988,200.454,265.0895,94.9942,-0.0010089,-0.00012128,0.0,0 STARLINK-5285,1 55296U 23010AD  24015.93832678 -.00012128  00000-0 -10089-2 0  9997,2 55296  69.9988 200.4540 0002824 265.0895  94.9942 14.98387213 55568,6950.016,96.103,573.844,569.918,0.0
55296.0,STARLINK-5285,PAYLOAD,2024-01-16 14:32:33,14.98329566,0.0002892,69.9988,198.7708,270.3177,89.7651,-6.1905e-05,-8.32e-06,0.0,0 STARLINK-5285,1 55296U 23010AD  24016.60594105 -.00000832  00000-0 -61905-4 0  9996,2 55296  69.9988 198.7708 0002892 270.3177  89.7651 14.98329566 56859,6950.194,96.107,574.069,570.049,0.0
55296.0,STARLINK-5285,PAYLOAD,2024-01-16 19:20:57,14.98333819,0.0002679,69.9993,198.2662,267.6569,92.4283,-1.9227e-05,-3.22e-06,0.0,0 STARLINK-5285,1 55296U 23010AD  24016.80621691 -.00000322  00000-0 -19227-4 0  9993,2 55296  69.9993 198.2662 0002679 267.6569  92.4283 14.98333819 55695,6950.181,96.107,573.908,570.184,0.0
55296.0,STARLINK-5285,PAYLOAD,2024-01-16 20:57:05,14.98334348,0.0002796,69.9992,198.0977,270.4402,89.6437,1.1001e-05,3.8e-07,0.0,0 STARLINK-5285,1 55296U 23010AD  24016.87297550  .00000038  00000-0  11001-4 0  9997,2 55296  69.9992 198.0977 0002796 270.4402  89.6437 14.98334348 56899,6950.179,96.107,573.988,570.101,0.0
55296.0,STARLINK-5285,PAYLOAD,2024-01-17 14:34:34,14.98324874,0.0002836,69.9995,196.2473,273.6637,86.4198,8.7029e-06,1.1e-07,0.0,0 STARLINK-5285,1 55296U 23010AD  24017.60733930  .00000011  00000-0  87029-5 0  9991,2 55296  69.9995 196.2473 0002836 273.6637  86.4198 14.98324874 57009,6950.209,96.107,574.045,570.103,0.0
55296.0,STARLINK-5285,PAYLOAD,2024-01-17 19:22:58,14.98323776,0.0002837,69.9995,195.7424,272.9653,87.1181,-3.7233e-06,-1.37e-06,0.0,0 STARLINK-5285,1 55296U 23010AD  24017.80762093 -.00000137  00000-0 -37233-5 0  9998,2 55296  69.9995 195.7424 0002837 272.9653  87.1181 14.98323776 55840,6950.212,96.107,574.049,570.105,0.0
55296.0,STARLINK-5285,PAYLOAD,2024-01-17 20:59:06,14.98324117,0.0002834,69.9995,195.5741,272.937,87.1464,-8.938e-09,-9.3e-07,0.0,0 STARLINK-5285,1 55296U 23010AD  24017.87438082 -.00000093  00000-0 -89380-8 0  9997,2 55296  69.9995 195.5741 0002834 272.9370  87.1464 14.98324117 57041,6950.211,96.107,574.046,570.106,0.0
55296.0,STARLINK-5285,PAYLOAD,2024-01-18 14:36:35,14.98324451,0.0002829,69.9996,193.7237,267.7894,92.2941,-8.8686e-05,-1.151e-05,0.0,0 STARLINK-5285,1 55296U 23010AD  24018.60874555 -.00001151  00000-0 -88686-4 0  9998,2 55296  69.9996 193.7237 0002829 267.7894  92.2941 14.98324451 57159,6950.21,96.107,574.041,570.109,0.0
55296.0,STARLINK-5285,PAYLOAD,2024-01-18 19:24:59,14.98323662,0.0002831,69.9997,193.2189,267.9646,92.1189,-9.032e-05,-1.17e-05,0.0,0 STARLINK-5285,1 55296U 23010AD  24018.80902683 -.00001170  00000-0 -90320-4 0  9993,2 55296  69.9997 193.2189 0002831 267.9646  92.1189 14.98323662 55997,6950.212,96.107,574.045,570.11,0.0
55296.0,STARLINK-5285,PAYLOAD,2024-01-18 21:01:08,14.98323532,0.0002834,69.9997,193.0505,268.1774,91.9061,-8.9716e-05,-1.163e-05,0.0,0 STARLINK-5285,1 55296U 23010AD  24018.87578717 -.00001163  00000-0 -89716-4 0  9996,2 55296  69.9997 193.0505 0002834 268.1774  91.9061 14.98323532 57191,6950.213,96.107,574.048,570.108,0.0
55296.0,STARLINK-5285,PAYLOAD,2024-01-19 14:38:36,14.98327219,0.0002985,69.9995,191.198,267.8125,92.2692,2.2004e-05,1.7e-06,0.0,0 STARLINK-5285,1 55296U 23010AD  24019.61014334  .00000170  00000-0  22004-4 0  9991,2 55296  69.9995 191.1980 0002985 267.8125  92.2692 14.98327219 57301,6950.201,96.107,574.141,569.992,0.0
55296.0,STARLINK-5285,PAYLOAD,2024-01-19 19:27:00,14.98328477,0.0002951,69.9997,190.6936,267.0573,93.0249,3.734e-05,3.53e-06,0.0,0 STARLINK-5285,1 55296U 23010AD  24019.81042245  .00000353  00000-0  37340-4 0  9997,2 55296  69.9997 190.6936 0002951 267.0573  93.0249 14.98328477 56145,6950.198,96.107,574.114,570.012,0.0
55296.0,STARLINK-5285,PAYLOAD,2024-01-19 21:03:08,14.98329388,0.000296,69.9998,190.5253,267.5649,92.5172,4.6191e-05,4.58e-06,0.0,0 STARLINK-5285,1 55296U 23010AD  24019.87718173  .00000458  00000-0  46191-4 0  9993,2 55296  69.9998 190.5253 0002960 267.5649  92.5172 14.98329388 57340,6950.195,96.107,574.117,570.003,0.0
55296.0,STARLINK-5285,PAYLOAD,2024-01-20 14:40:37,14.98330475,0.0003071,69.9997,188.6738,268.2235,91.8572,9.6861e-05,1.063e-05,0.0,0 STARLINK-5285,1 55296U 23010AD  24020.61153954  .00001063  00000-0  96861-4 0  9999,2 55296  69.9997 188.6738 0003071 268.2235  91.8572 14.98330475 57455,6950.191,96.107,574.191,569.922,0.0
55296.0,STARLINK-5285,PAYLOAD,2024-01-20 19:29:01,14.98332571,0.0003045,69.9998,188.1691,268.0688,92.0122,0.00011495,1.279e-05,0.0,0 STARLINK-5285,1 55296U 23010AD  24020.81181749  .00001279  00000-0  11495-3 0  9992,2 55296  69.9998 188.1691 0003045 268.0688  92.0122 14.98332571 56294,6950.185,96.107,574.166,569.934,0.0
55296.0,STARLINK-5285,PAYLOAD,2024-01-20 21:05:09,14.98333281,0.0003029,69.9999,188.0007,267.13,92.9513,0.00012066,1.347e-05,0.0,0 STARLINK-5285,1 55296U 23010AD  24020.87857667  .00001347  00000-0  12066-3 0  9998,2 55296  69.9999 188.0007 0003029 267.1300  92.9513 14.98333281 57493,6950.183,96.107,574.153,569.943,0.0
55296.0,STARLINK-5285,PAYLOAD,2024-01-21 19:31:01,14.98335009,0.0002917,70.0002,185.644,267.484,92.5985,3.26e-05,2.96e-06,0.0,0 STARLINK-5285,1 55296U 23010AD  24021.81321582  .00000296  00000-0  32600-4 0  9994,2 55296  70.0002 185.6440 0002917 267.4840  92.5985 14.98335009 56445,6950.177,96.107,574.07,570.015,0.0
55296.0,STARLINK-5285,PAYLOAD,2024-01-21 21:07:09,14.98335861,0.0002915,70.0001,185.4751,267.5435,92.5391,4.2621e-05,4.16e-06,0.0,0 STARLINK-5285,1 55296U 23010AD  24021.87997471  .00000416  00000-0  42621-4 0  9994,2 55296  70.0001 185.4751 0002915 267.5435  92.5391 14.98335861 57646,6950.175,96.107,574.066,570.014,0.0
55296.0,STARLINK-5285,PAYLOAD,2024-01-22 11:32:22,14.98328439,0.0002639,70.0008,183.9601,268.6869,91.3988,-6.7341e-05,-8.96e-06,0.0,0 STARLINK-5285,1 55296U 23010AD  24022.48082166 -.00000896  00000-0 -67341-4 0  9998,2 55296  70.0008 183.9601 0002639 268.6869  91.3988 14.98328439 56546,6950.198,96.107,573.897,570.229,0.0
55296.0,STARLINK-5285,PAYLOAD,2024-01-22 19:33:03,14.98326472,0.0002685,70.0007,183.1188,268.3409,91.7443,-8.6992e-05,-1.131e-05,0.0,0 STARLINK-5285,1 55296U 23010AD  24022.81462370 -.00001131  00000-0 -86992-4 0  9990,2 55296  70.0007 183.1188 0002685 268.3409  91.7443 14.98326472 57787,6950.204,96.107,573.935,570.203,0.0
55296.0,STARLINK-5285,PAYLOAD,2024-01-23 11:34:23,14.98335343,0.0003301,69.9991,181.4343,277.2423,82.8361,-6.9659e-07,-1.01e-06,0.0,0 STARLINK-5285,1 55296U 23010AD  24023.48221431 -.00000101  00000-0 -69659-6 0  9994,2 55296  69.9991 181.4343 0003301 277.2423  82.8361 14.98335343 56697,6950.176,96.107,574.336,569.747,0.0
